{"type": "FeatureCollection", "features": [ {"type": "Feature", "properties": {"norad_id": 41175, "name": "GSAT0208 (GALILEO 11)", "group": "galileo", "lat": 47.5104676275278, "lon": 154.52044841893724, "alt_km": 23213.770079045335, "timestamp": "2025-12-10T11:33:53.648458+00:00", "meta": {"OBJECT_NAME": "GSAT0208 (GALILEO 11)", "OBJECT_ID": "2015-079B", "EPOCH": "2025-12-08T14:51:40.201056", "MEAN_MOTION": 1.70474231, "ECCENTRICITY": 0.0001859, "INCLINATION": 55.7088, "RA_OF_ASC_NODE": 106.4912, "ARG_OF_PERICENTER": 3.1611, "MEAN_ANOMALY": 356.8026, "EPHEMERIS_TYPE": 0, "CLASSIFICATION_TYPE": "U", "NORAD_CAT_ID": 41175, "ELEMENT_SET_NO": 999, "REV_AT_EPOCH": 6194, "BSTAR": 0, "MEAN_MOTION_DOT": 1e-07, "MEAN_MOTION_DDOT": 0}, "tle": {"line1": "1 41175U 15079B   25342.61921529  .00000010  00000+0  00000+0 0  9990", "line2": "2 41175  55.7088 106.4912 0001859   3.1611 356.8026  1.70474231 61940"}}, "geometry": {"type": "Point", "coordinates": [154.52044841893724, 47.5104676275278]}}, {"type": "Feature", "properties": {"norad_id": 41549, "name": "GSAT0211 (GALILEO 14)", "group": "galileo", "lat": -10.635947042443366, "lon": -140.6167877211794, "alt_km": 23213.372068319542, "timestamp": "2025-12-10T11:33:53.648469+00:00", "meta": {"OBJECT_NAME": "GSAT0211 (GALILEO 14)", "OBJECT_ID": "2016-030A", "EPOCH": "2025-12-07T13:40:58.264320", "MEAN_MOTION": 1.70472997, "ECCENTRICITY": 0.00040128, "INCLINATION": 55.154, "RA_OF_ASC_NODE": 226.9659, "ARG_OF_PERICENTER": 14.4678, "MEAN_ANOMALY": 345.6377, "EPHEMERIS_TYPE": 0, "CLASSIFICATION_TYPE": "U", "NORAD_CAT_ID": 41549, "ELEMENT_SET_NO": 999, "REV_AT_EPOCH": 5940, "BSTAR": 0, "MEAN_MOTION_DOT": 2.3e-07, "MEAN_MOTION_DDOT": 0}, "tle": {"line1": "1 41549U 16030A   25341.57011880  .00000023  00000+0  00000+0 0  9991", "line2": "2 41549  55.1540 226.9659 0004012  14.4678 345.6377  1.70472997 59400"}}, "geometry": {"type": "Point", "coordinates": [-140.6167877211794, -10.635947042443366]}}, {"type": "Feature", "properties": {"norad_id": 41550, "name": "GSAT0210 (GALILEO 13)", "group": "galileo", "lat": -7.4302559207048136, "lon": 52.10099495207677, "alt_km": 23221.155135466382, "timestamp": "2025-12-10T11:33:53.648479+00:00", "meta": {"OBJECT_NAME": "GSAT0210 (GALILEO 13)", "OBJECT_ID": "2016-030B", "EPOCH": "2025-12-09T00:00:58.854816", "MEAN_MOTION": 1.70473614, "ECCENTRICITY": 0.0001366, "INCLINATION": 55.1527, "RA_OF_ASC_NODE": 226.9246, "ARG_OF_PERICENTER": 244.5421, "MEAN_ANOMALY": 115.531, "EPHEMERIS_TYPE": 0, "CLASSIFICATION_TYPE": "U", "NORAD_CAT_ID": 41550, "ELEMENT_SET_NO": 999, "REV_AT_EPOCH": 5942, "BSTAR": 0, "MEAN_MOTION_DOT": 1.3e-07, "MEAN_MOTION_DDOT": 0}, "tle": {"line1": "1 41550U 16030B   25343.00068119  .00000013  00000+0  00000+0 0  9999", "line2": "2 41550  55.1527 226.9246 0001366 244.5421 115.5310  1.70473614 59420"}}, "geometry": {"type": "Point", "coordinates": [52.10099495207677, -7.4302559207048136]}}, {"type": "Feature", "properties": {"norad_id": 41859, "name": "GSAT0207 (GALILEO 15)", "group": "galileo", "lat": 14.94228071355702, "lon": 116.91579341686673, "alt_km": 23216.641366146374, "timestamp": "2025-12-10T11:33:53.648490+00:00", "meta": {"OBJECT_NAME": "GSAT0207 (GALILEO 15)", "OBJECT_ID": "2016-069A", "EPOCH": "2025-12-09T20:46:23.343744", "MEAN_MOTION": 1.70474355, "ECCENTRICITY": 0.0002194, "INCLINATION": 55.3802, "RA_OF_ASC_NODE": 106.3298, "ARG_OF_PERICENTER": 323.9491, "MEAN_ANOMALY": 36.0038, "EPHEMERIS_TYPE": 0, "CLASSIFICATION_TYPE": "U", "NORAD_CAT_ID": 41859, "ELEMENT_SET_NO": 999, "REV_AT_EPOCH": 5617, "BSTAR": 0, "MEAN_MOTION_DOT": 1.1e-07, "MEAN_MOTION_DDOT": 0}, "tle": {"line1": "1 41859U 16069A   25343.86554796  .00000011  00000+0  00000+0 0  9996", "line2": "2 41859  55.3802 106.3298 0002194 323.9491  36.0038  1.70474355 56173"}}, "geometry": {"type": "Point", "coordinates": [116.91579341686673, 14.94228071355702]}}, {"type": "Feature", "properties": {"norad_id": 41860, "name": "GSAT0212 (GALILEO 16)", "group": "galileo", "lat": 51.458476267194655, "lon": -133.743865829695, "alt_km": 23214.761257741975, "timestamp": "2025-12-10T11:33:53.648501+00:00", "meta": {"OBJECT_NAME": "GSAT0212 (GALILEO 16)", "OBJECT_ID": "2016-069B", "EPOCH": "2025-12-09T03:10:58.927872", "MEAN_MOTION": 1.70474546, "ECCENTRICITY": 0.00021877, "INCLINATION": 55.3778, "RA_OF_ASC_NODE": 106.3455, "ARG_OF_PERICENTER": 30.0277, "MEAN_ANOMALY": 329.9496, "EPHEMERIS_TYPE": 0, "CLASSIFICATION_TYPE": "U", "NORAD_CAT_ID": 41860, "ELEMENT_SET_NO": 999, "REV_AT_EPOCH": 5641, "BSTAR": 0, "MEAN_MOTION_DOT": 1e-07, "MEAN_MOTION_DDOT": 0}, "tle": {"line1": "1 41860U 16069B   25343.13262648  .00000010  00000+0  00000+0 0  9999", "line2": "2 41860  55.3778 106.3455 0002187  30.0277 329.9496  1.70474546 56413"}}, "geometry": {"type": "Point", "coordinates": [-133.743865829695, 51.458476267194655]}}, {"type": "Feature", "properties": {"norad_id": 41861, "name": "GSAT0213 (GALILEO 17)", "group": "galileo", "lat": -46.87288809761211, "lon": -26.23611543224339, "alt_km": 23222.35219559671, "timestamp": "2025-12-10T11:33:53.648512+00:00", "meta": {"OBJECT_NAME": "GSAT0213 (GALILEO 17)", "OBJECT_ID": "2016-069C", "EPOCH": "2025-12-08T21:55:35.814144", "MEAN_MOTION": 1.70474823, "ECCENTRICITY": 0.00022753, "INCLINATION": 55.38, "RA_OF_ASC_NODE": 106.3592, "ARG_OF_PERICENTER": 283.5203, "MEAN_ANOMALY": 76.4183, "EPHEMERIS_TYPE": 0, "CLASSIFICATION_TYPE": "U", "NORAD_CAT_ID": 41861, "ELEMENT_SET_NO": 999, "REV_AT_EPOCH": 5627, "BSTAR": 0, "MEAN_MOTION_DOT": 1e-07, "MEAN_MOTION_DDOT": 0}, "tle": {"line1": "1 41861U 16069C   25342.91360896  .00000010  00000+0  00000+0 0  9999", "line2": "2 41861  55.3800 106.3592 0002275 283.5203  76.4183  1.70474823 56273"}}, "geometry": {"type": "Point", "coordinates": [-26.23611543224339, -46.87288809761211]}}, {"type": "Feature", "properties": {"norad_id": 41862, "name": "GSAT0214 (GALILEO 18)", "group": "galileo", "lat": 22.02411851887801, "lon": -89.91296413819262, "alt_km": 23222.189718693837, "timestamp": "2025-12-10T11:33:53.648523+00:00", "meta": {"OBJECT_NAME": "GSAT0214 (GALILEO 18)", "OBJECT_ID": "2016-069D", "EPOCH": "2025-12-07T21:16:28.160256", "MEAN_MOTION": 1.70474622, "ECCENTRICITY": 0.00012492, "INCLINATION": 55.3777, "RA_OF_ASC_NODE": 106.3805, "ARG_OF_PERICENTER": 290.0949, "MEAN_ANOMALY": 69.8506, "EPHEMERIS_TYPE": 0, "CLASSIFICATION_TYPE": "U", "NORAD_CAT_ID": 41862, "ELEMENT_SET_NO": 999, "REV_AT_EPOCH": 5638, "BSTAR": 0, "MEAN_MOTION_DOT": 8e-08, "MEAN_MOTION_DDOT": 0}, "tle": {"line1": "1 41862U 16069D   25341.88643704  .00000008  00000+0  00000+0 0  9994", "line2": "2 41862  55.3777 106.3805 0001249 290.0949  69.8506  1.70474622 56388"}}, "geometry": {"type": "Point", "coordinates": [-89.91296413819262, 22.02411851887801]}}, {"type": "Feature", "properties": {"norad_id": 43055, "name": "GSAT0215 (GALILEO 19)", "group": "galileo", "lat": -25.831516003068632, "lon": 66.41814086546367, "alt_km": 23228.124854526603, "timestamp": "2025-12-10T11:33:53.648534+00:00", "meta": {"OBJECT_NAME": "GSAT0215 (GALILEO 19)", "OBJECT_ID": "2017-079A", "EPOCH": "2025-12-09T13:11:41.417952", "MEAN_MOTION": 1.70473866, "ECCENTRICITY": 0.0001285, "INCLINATION": 55.1311, "RA_OF_ASC_NODE": 226.7257, "ARG_OF_PERICENTER": 343.8684, "MEAN_ANOMALY": 16.2123, "EPHEMERIS_TYPE": 0, "CLASSIFICATION_TYPE": "U", "NORAD_CAT_ID": 43055, "ELEMENT_SET_NO": 999, "REV_AT_EPOCH": 4975, "BSTAR": 0, "MEAN_MOTION_DOT": 1.1e-07, "MEAN_MOTION_DDOT": 0}, "tle": {"line1": "1 43055U 17079A   25343.54978493  .00000011  00000+0  00000+0 0  9997", "line2": "2 43055  55.1311 226.7257 0001285 343.8684  16.2123  1.70473866 49750"}}, "geometry": {"type": "Point", "coordinates": [66.41814086546367, -25.831516003068632]}}, {"type": "Feature", "properties": {"norad_id": 43056, "name": "GSAT0216 (GALILEO 20)", "group": "galileo", "lat": 26.769047434168208, "lon": -112.71657533047379, "alt_km": 23216.99092042441, "timestamp": "2025-12-10T11:33:53.648545+00:00", "meta": {"OBJECT_NAME": "GSAT0216 (GALILEO 20)", "OBJECT_ID": "2017-079B", "EPOCH": "2025-12-08T01:57:06.766848", "MEAN_MOTION": 1.70473892, "ECCENTRICITY": 0.00025149, "INCLINATION": 55.132, "RA_OF_ASC_NODE": 226.7661, "ARG_OF_PERICENTER": 318.3772, "MEAN_ANOMALY": 41.6956, "EPHEMERIS_TYPE": 0, "CLASSIFICATION_TYPE": "U", "NORAD_CAT_ID": 43056, "ELEMENT_SET_NO": 999, "REV_AT_EPOCH": 4974, "BSTAR": 0, "MEAN_MOTION_DOT": 1.9e-07, "MEAN_MOTION_DDOT": 0}, "tle": {"line1": "1 43056U 17079B   25342.08132832  .00000019  00000+0  00000+0 0  9993", "line2": "2 43056  55.1320 226.7661 0002514 318.3772  41.6956  1.70473892 49745"}}, "geometry": {"type": "Point", "coordinates": [-112.71657533047379, 26.769047434168208]}}, {"type": "Feature", "properties": {"norad_id": 43057, "name": "GSAT0217 (GALILEO 21)", "group": "galileo", "lat": -53.32248792283504, "lon": 116.0092645200141, "alt_km": 23227.411926068882, "timestamp": "2025-12-10T11:33:53.648555+00:00", "meta": {"OBJECT_NAME": "GSAT0217 (GALILEO 21)", "OBJECT_ID": "2017-079C", "EPOCH": "2025-12-10T01:28:57.302112", "MEAN_MOTION": 1.704739, "ECCENTRICITY": 0.0002794, "INCLINATION": 55.1293, "RA_OF_ASC_NODE": 226.7095, "ARG_OF_PERICENTER": 343.7549, "MEAN_ANOMALY": 16.3188, "EPHEMERIS_TYPE": 0, "CLASSIFICATION_TYPE": "U", "NORAD_CAT_ID": 43057, "ELEMENT_SET_NO": 999, "REV_AT_EPOCH": 4976, "BSTAR": 0, "MEAN_MOTION_DOT": 9e-08, "MEAN_MOTION_DDOT": 0}, "tle": {"line1": "1 43057U 17079C   25344.06177433  .00000009  00000+0  00000+0 0  9999", "line2": "2 43057  55.1293 226.7095 0002794 343.7549  16.3188  1.70473900 49768"}}, "geometry": {"type": "Point", "coordinates": [116.0092645200141, -53.32248792283504]}}]}